{
    "links": {
        "self": "http://www.neowsapp.com/rest/v1/neo/54054600?api_key=iIulBulltgU6a56xZRHN4H3l9WmuAYTsLGpBGhQ2"
    },
    "id": "54054600",
    "neo_reference_id": "54054600",
    "name": "(2020 SZ3)",
    "designation": "2020 SZ3",
    "nasa_jpl_url": "http://ssd.jpl.nasa.gov/sbdb.cgi?sstr=54054600",
    "absolute_magnitude_h": 25.001,
    "estimated_diameter": {
        "kilometers": {
            "estimated_diameter_min": 0.0265677623,
            "estimated_diameter_max": 0.0594073225
        },
        "meters": {
            "estimated_diameter_min": 26.5677622757,
            "estimated_diameter_max": 59.4073224585
        },
        "miles": {
            "estimated_diameter_min": 0.016508437,
            "estimated_diameter_max": 0.0369139874
        },
        "feet": {
            "estimated_diameter_min": 87.1645771846,
            "estimated_diameter_max": 194.9059198148
        }
    },
    "is_potentially_hazardous_asteroid": false,
    "close_approach_data": [
        {
            "close_approach_date": "2015-09-10",
            "close_approach_date_full": "2015-Sep-10 00:07",
            "epoch_date_close_approach": 1441843620000,
            "relative_velocity": {
                "kilometers_per_second": "19.5669734308",
                "kilometers_per_hour": "70441.1043510067",
                "miles_per_hour": "43769.3628674353"
            },
            "miss_distance": {
                "astronomical": "0.4161769231",
                "lunar": "161.8928230859",
                "kilometers": "62259181.238913797",
                "miles": "38686061.3253605186"
            },
            "orbiting_body": "Earth"
        },
        {
            "close_approach_date": "2020-09-22",
            "close_approach_date_full": "2020-Sep-22 06:01",
            "epoch_date_close_approach": 1600754460000,
            "relative_velocity": {
                "kilometers_per_second": "14.3667063379",
                "kilometers_per_hour": "51720.1428163165",
                "miles_per_hour": "32136.8854071718"
            },
            "miss_distance": {
                "astronomical": "0.0876711838",
                "lunar": "34.1040904982",
                "kilometers": "13115422.356858506",
                "miles": "8149545.5531031428"
            },
            "orbiting_body": "Earth"
        }
    ],
    "orbital_data": {
        "orbit_id": "3",
        "orbit_determination_date": "2020-09-27 06:55:04",
        "first_observation_date": "2020-09-17",
        "last_observation_date": "2020-09-27",
        "data_arc_in_days": 10,
        "observations_used": 18,
        "orbit_uncertainty": "8",
        "minimum_orbit_intersection": ".0870694",
        "jupiter_tisserand_invariant": "4.573",
        "epoch_osculation": "2459112.5",
        "eccentricity": ".2475596847198235",
        "semi_major_axis": "1.418231500950549",
        "inclination": "26.65222990615923",
        "ascending_node_longitude": "357.5682629951816",
        "orbital_period": "616.9061759232781",
        "perihelion_distance": "1.067134557715509",
        "perihelion_argument": "28.13679941871638",
        "aphelion_distance": "1.769328444185589",
        "perihelion_time": "2459141.762181409810",
        "mean_anomaly": "342.9238452804179",
        "mean_motion": ".5835571340507565",
        "equinox": "J2000",
        "orbit_class": {
            "orbit_class_type": "AMO",
            "orbit_class_description": "Near-Earth asteroid orbits similar to that of 1221 Amor",
            "orbit_class_range": "1.017 AU < q (perihelion) < 1.3 AU"
        }
    },
    "is_sentry_object": false
}